NORAD_CAT_ID,OBJECT_NAME,OBJECT_TYPE,EPOCH,MEAN_MOTION,ECCENTRICITY,INCLINATION,RA_OF_ASC_NODE,ARG_OF_PERICENTER,MEAN_ANOMALY,BSTAR,MEAN_MOTION_DOT,MEAN_MOTION_DDOT,TLE_LINE0,TLE_LINE1,TLE_LINE2,SEMIMAJOR_AXIS,PERIOD,APOGEE,PERIGEE,DECAYED
53887.0,STARLINK-5029,PAYLOAD,2024-02-07 14:17:37,15.08845158,0.0001649,53.2176,140.9224,71.1999,288.9172,6.4576e-05,7.4e-06,0.0,0 STARLINK-5029,1 53887U 22119B   24038.59557327  .00000740  00000-0  64576-4 0  9999,2 53887  53.2176 140.9224 0001649  71.1999 288.9172 15.08845158 76785,6917.865,95.437,540.87,538.589,0.0
53887.0,STARLINK-5029,PAYLOAD,2024-02-08 10:57:39,15.08835502,0.0001611,53.2172,137.0552,122.4888,237.626,-0.00011625,-2.137e-05,0.0,0 STARLINK-5029,1 53887U 22119B   24039.45670477 -.00002137  00000-0 -11625-3 0  9997,2 53887  53.2172 137.0552 0001611 122.4888 237.6260 15.08835502 76497,6917.894,95.438,540.874,538.645,0.0
53887.0,STARLINK-5029,PAYLOAD,2024-02-08 14:08:25,15.08839074,0.0001451,53.2168,136.4595,91.5863,268.5295,-6.4686e-05,-1.317e-05,0.0,0 STARLINK-5029,1 53887U 22119B   24039.58918183 -.00001317  00000-0 -64686-4 0  9995,2 53887  53.2168 136.4595 0001451  91.5863 268.5295 15.08839074 76931,6917.883,95.438,540.752,538.744,0.0
53887.0,STARLINK-5029,PAYLOAD,2024-02-09 10:48:25,15.08848862,0.0001524,53.2166,132.5933,89.3768,270.7399,2.5302e-05,1.15e-06,0.0,0 STARLINK-5029,1 53887U 22119B   24040.45029533  .00000115  00000-0  25302-4 0  9990,2 53887  53.2166 132.5933 0001524  89.3768 270.7399 15.08848862 76645,6917.853,95.437,540.773,538.664,0.0
53887.0,STARLINK-5029,PAYLOAD,2024-02-09 12:23:47,15.08865223,0.0001305,53.2174,132.2947,102.8944,257.2194,0.00017173,2.448e-05,0.0,0 STARLINK-5029,1 53887U 22119B   24040.51652077  .00002448  00000-0  17173-3 0  9999,2 53887  53.2174 132.2947 0001305 102.8944 257.2194 15.08865223 77071,6917.803,95.436,540.571,538.766,0.0
53887.0,STARLINK-5029,PAYLOAD,2024-02-10 12:14:35,15.08847375,0.0001416,53.2169,127.8338,98.5892,261.5261,0.00012126,1.643e-05,0.0,0 STARLINK-5029,1 53887U 22119B   24041.51013218  .00001643  00000-0  12126-3 0  9997,2 53887  53.2169 127.8338 0001416  98.5892 261.5261 15.08847375 76806,6917.858,95.437,540.702,538.743,0.0
53887.0,STARLINK-5029,PAYLOAD,2024-02-11 12:05:22,15.08849085,0.0001611,53.2185,123.3765,109.1636,250.9531,-8.6604e-05,-1.666e-05,0.0,0 STARLINK-5029,1 53887U 22119B   24042.50373615 -.00001666  00000-0 -86604-4 0  9997,2 53887  53.2185 123.3765 0001611 109.1636 250.9531 15.08849085 76959,6917.853,95.437,540.832,538.603,0.0
53887.0,STARLINK-5029,PAYLOAD,2024-02-11 15:16:08,15.08857325,0.0001278,53.2172,122.7781,85.4508,274.663,-5.9029e-05,-1.228e-05,0.0,0 STARLINK-5029,1 53887U 22119B   24042.63620856 -.00001228  00000-0 -59029-4 0  9998,2 53887  53.2172 122.7781 0001278  85.4508 274.6630 15.08857325 76970,6917.827,95.436,540.577,538.808,0.0
53887.0,STARLINK-5029,PAYLOAD,2024-02-12 11:56:09,15.08850438,0.0001514,53.2172,118.9128,106.6082,253.5076,6.7888e-05,7.93e-06,0.0,0 STARLINK-5029,1 53887U 22119B   24043.49732753  .00000793  00000-0  67888-4 0  9999,2 53887  53.2172 118.9128 0001514 106.6082 253.5076 15.08850438 77102,6917.848,95.437,540.761,538.666,0.0
53887.0,STARLINK-5029,PAYLOAD,2024-02-13 11:46:57,15.0883338,0.0001589,53.2178,114.4551,113.0017,247.1143,2.2752e-05,7.4e-07,0.0,0 STARLINK-5029,1 53887U 22119B   24044.49094442  .00000074  00000-0  22752-4 0  9999,2 53887  53.2178 114.4551 0001589 113.0017 247.1143 15.08833380 77258,6917.901,95.438,540.865,538.666,0.0
53887.0,STARLINK-5029,PAYLOAD,2024-02-13 21:19:16,15.08839399,0.0001462,53.2176,112.67,107.8985,252.2166,3.3702e-05,2.48e-06,0.0,0 STARLINK-5029,1 53887U 22119B   24044.88838172  .00000248  00000-0  33702-4 0  9998,2 53887  53.2176 112.6700 0001462 107.8985 252.2166 15.08839399 77738,6917.882,95.438,540.759,538.736,0.0
53887.0,STARLINK-5029,PAYLOAD,2024-02-14 11:37:44,15.08847604,0.0001953,53.218,109.9945,109.8059,250.3144,-9.5697e-06,-4.41e-06,0.0,0 STARLINK-5029,1 53887U 22119B   24045.48453938 -.00000441  00000-0 -95697-5 0  9997,2 53887  53.2180 109.9945 0001953 109.8059 250.3144 15.08847604 77409,6917.857,95.437,541.073,538.371,0.0
53887.0,STARLINK-5029,PAYLOAD,2024-02-14 13:13:06,15.08850468,0.0001564,53.2172,109.6953,97.686,262.431,9.3025e-05,1.193e-05,0.0,0 STARLINK-5029,1 53887U 22119B   24045.55077395  .00001193  00000-0  93025-4 0  9999,2 53887  53.2172 109.6953 0001564  97.6860 262.4310 15.08850468 77836,6917.848,95.437,540.795,538.631,0.0
53887.0,STARLINK-5029,PAYLOAD,2024-02-14 21:10:03,15.08844471,0.0001846,53.2169,108.2074,77.5976,282.5222,2.1199e-06,-2.54e-06,0.0,0 STARLINK-5029,1 53887U 22119B   24045.88198062 -.00000254  00000-0  21199-5 0  9992,2 53887  53.2169 108.2074 0001846  77.5976 282.5222 15.08844471 77886,6917.867,95.437,541.009,538.455,0.0
53887.0,STARLINK-5029,PAYLOAD,2024-02-15 11:28:32,15.0883155,0.0001556,53.217,105.5321,82.7434,277.3735,6.1736e-05,6.94e-06,0.0,0 STARLINK-5029,1 53887U 22119B   24046.47815203  .00000694  00000-0  61736-4 0  9998,2 53887  53.2170 105.5321 0001556  82.7434 277.3735 15.08831550 77557,6917.906,95.438,540.848,538.695,0.0
53887.0,STARLINK-5029,PAYLOAD,2024-02-15 13:03:55,15.08832483,0.000184,53.2164,105.2349,84.8488,275.2714,6.9579e-05,8.19e-06,0.0,0 STARLINK-5029,1 53887U 22119B   24046.54439248  .00000819  00000-0  69579-4 0  9999,2 53887  53.2164 105.2349 0001840  84.8488 275.2714 15.08832483 77982,6917.903,95.438,541.041,538.495,0.0
53887.0,STARLINK-5029,PAYLOAD,2024-02-15 21:00:50,15.08836375,0.0001512,53.2169,103.7475,82.9959,277.1205,5.1776e-05,5.36e-06,0.0,0 STARLINK-5029,1 53887U 22119B   24046.87558991  .00000536  00000-0  51776-4 0  9998,2 53887  53.2169 103.7475 0001512  82.9959 277.1205 15.08836375 78035,6917.891,95.438,540.802,538.71,0.0
53887.0,STARLINK-5029,PAYLOAD,2024-02-16 11:19:18,15.08849822,0.0001532,53.2161,101.0713,83.112,277.0047,8.8068e-05,1.114e-05,0.0,0 STARLINK-5029,1 53887U 22119B   24047.47174141  .00001114  00000-0  88068-4 0  9993,2 53887  53.2161 101.0713 0001532  83.1120 277.0047 15.08849822 77705,6917.85,95.437,540.775,538.656,0.0
53887.0,STARLINK-5029,PAYLOAD,2024-02-16 12:54:41,15.08852249,0.000155,53.2163,100.772,84.0357,276.0811,0.00011439,1.534e-05,0.0,0 STARLINK-5029,1 53887U 22119B   24047.53797850  .00001534  00000-0  11439-3 0  9991,2 53887  53.2163 100.7720 0001550  84.0357 276.0811 15.08852249 78136,6917.843,95.437,540.78,538.636,0.0
53887.0,STARLINK-5029,PAYLOAD,2024-02-17 03:13:10,15.08828493,0.0001516,53.2167,98.0951,81.8877,278.2287,8.0616e-05,9.95e-06,0.0,0 STARLINK-5029,1 53887U 22119B   24048.13415496  .00000995  00000-0  80616-4 0  9995,2 53887  53.2167  98.0951 0001516  81.8877 278.2287 15.08828493 77807,6917.916,95.438,540.829,538.732,0.0
53887.0,STARLINK-5029,PAYLOAD,2024-02-17 09:34:43,15.08833265,0.0001514,53.2161,96.9075,85.9352,274.1813,0.00011252,1.503e-05,0.0,0 STARLINK-5029,1 53887U 22119B   24048.39911253  .00001503  00000-0  11252-3 0  9990,2 53887  53.2161  96.9075 0001514  85.9352 274.1813 15.08833265 78260,6917.901,95.438,540.813,538.719,0.0
53887.0,STARLINK-5029,PAYLOAD,2024-02-17 20:42:24,15.08841724,0.0001602,53.216,94.8264,88.4667,271.6509,8.8796e-05,1.126e-05,0.0,0 STARLINK-5029,1 53887U 22119B   24048.86278838  .00001126  00000-0  88796-4 0  9996,2 53887  53.2160  94.8264 0001602  88.4667 271.6509 15.08841724 78332,6917.875,95.437,540.848,538.632,0.0
53887.0,STARLINK-5029,PAYLOAD,2024-02-18 12:36:15,15.08856392,0.0001724,53.2173,91.8516,95.1219,264.997,7.3923e-05,8.89e-06,0.0,0 STARLINK-5029,1 53887U 22119B   24049.52517927  .00000889  00000-0  73923-4 0  9996,2 53887  53.2173  91.8516 0001724  95.1219 264.9970 15.08856392 78431,6917.83,95.437,540.888,538.503,0.0
53887.0,STARLINK-5029,PAYLOAD,2024-02-19 02:54:44,15.08838574,0.0002118,53.2167,89.1746,97.5868,262.5365,4.4997e-05,4.28e-06,0.0,0 STARLINK-5029,1 53887U 22119B   24050.12135151  .00000428  00000-0  44997-4 0  9997,2 53887  53.2167  89.1746 0002118  97.5868 262.5365 15.08838574 78101,6917.885,95.438,541.215,538.285,0.0
53887.0,STARLINK-5029,PAYLOAD,2024-02-19 09:16:17,15.088393,0.0001529,53.2172,87.9863,95.5617,264.555,9.2364e-05,1.182e-05,0.0,0 STARLINK-5029,1 53887U 22119B   24050.38631206  .00001182  00000-0  92364-4 0  9996,2 53887  53.2172  87.9863 0001529  95.5617 264.5550 15.08839300 78564,6917.883,95.438,540.805,538.69,0.0
53887.0,STARLINK-5029,PAYLOAD,2024-02-19 18:48:36,15.08838569,0.0001481,53.2167,86.2019,92.2397,267.8765,5.9022e-05,6.51e-06,0.0,0 STARLINK-5029,1 53887U 22119B   24050.78375212  .00000651  00000-0  59022-4 0  9996,2 53887  53.2167  86.2019 0001481  92.2397 267.8765 15.08838569 78626,6917.885,95.438,540.774,538.725,0.0
53887.0,STARLINK-5029,PAYLOAD,2024-02-20 09:07:04,15.08838661,0.0001502,53.2159,83.5273,91.8334,268.283,6.6271e-05,7.67e-06,0.0,0 STARLINK-5029,1 53887U 22119B   24051.37991319  .00000767  00000-0  66271-4 0  9996,2 53887  53.2159  83.5273 0001502  91.8334 268.2830 15.08838661 78293,6917.884,95.438,540.789,538.71,0.0
53887.0,STARLINK-5029,PAYLOAD,2024-02-20 12:17:50,15.08844586,0.0001535,53.2158,82.9312,92.0884,268.0284,5.5457e-05,5.95e-06,0.0,0 STARLINK-5029,1 53887U 22119B   24051.51239002  .00000595  00000-0  55457-4 0  9999,2 53887  53.2158  82.9312 0001535  92.0884 268.0284 15.08844586 78731,6917.866,95.437,540.793,538.669,0.0
53887.0,STARLINK-5029,PAYLOAD,2024-02-20 18:39:23,15.08841737,0.0001562,53.2162,81.7411,91.2574,268.8598,2.3963e-05,9.3e-07,0.0,0 STARLINK-5029,1 53887U 22119B   24051.77735069  .00000093  00000-0  23963-4 0  9991,2 53887  53.2162  81.7411 0001562  91.2574 268.8598 15.08841737 78775,6917.875,95.437,540.821,538.66,0.0
53887.0,STARLINK-5029,PAYLOAD,2024-02-21 08:57:51,15.08836382,0.0001501,53.2175,79.0679,99.6239,260.4923,9.4725e-05,1.22e-05,0.0,0 STARLINK-5029,1 53887U 22119B   24052.37351780  .00001220  00000-0  94725-4 0  9999,2 53887  53.2175  79.0679 0001501  99.6239 260.4923 15.08836382 78868,6917.891,95.438,540.795,538.718,0.0
